[{"CCSDS_OMM_VERS":"2.0","COMMENT":"GENERATED VIA SPACE-TRACK.ORG API","CREATION_DATE":"2004-08-15T23:35:47","ORIGINATOR":"18 SPCS","OBJECT_NAME":"SL-4 R\/B","OBJECT_ID":"1966-015B","CENTER_NAME":"EARTH","REF_FRAME":"TEME","TIME_SYSTEM":"UTC","MEAN_ELEMENT_THEORY":"SGP4","EPOCH":"1966-02-23T07:05:35.879424","MEAN_MOTION":"15.11506560","ECCENTRICITY":"0.05006500","INCLINATION":"51.8266","RA_OF_ASC_NODE":"103.5442","ARG_OF_PERICENTER":"66.1289","MEAN_ANOMALY":"299.0506","EPHEMERIS_TYPE":"0","CLASSIFICATION_TYPE":"U","NORAD_CAT_ID":"2071","ELEMENT_SET_NO":"999","REV_AT_EPOCH":"7","BSTAR":"0.00000000000000","MEAN_MOTION_DOT":"0.00000000","MEAN_MOTION_DDOT":"0.0000000000000","SEMIMAJOR_AXIS":"6909.746","PERIOD":"95.269","APOAPSIS":"877.547","PERIAPSIS":"185.674","OBJECT_TYPE":"ROCKET BODY","RCS_SIZE":null,"COUNTRY_CODE":null,"LAUNCH_DATE":null,"SITE":null,"DECAY_DATE":"1966-04-29","FILE":"33914","GP_ID":"8719158","TLE_LINE0":"0 SL-4 R\/B","TLE_LINE1":"1 02071U 66015  B 66054.29555416  .00000000 +00000-0 +00000-0 0  9996","TLE_LINE2":"2 02071 051.8266 103.5442 0500650 066.1289 299.0506 15.11506560000075"},{"CCSDS_OMM_VERS":"2.0","COMMENT":"GENERATED VIA SPACE-TRACK.ORG API","CREATION_DATE":"2004-08-15T23:35:47","ORIGINATOR":"18 SPCS","OBJECT_NAME":"COSMOS 110","OBJECT_ID":"1966-015A","CENTER_NAME":"EARTH","REF_FRAME":"TEME","TIME_SYSTEM":"UTC","MEAN_ELEMENT_THEORY":"SGP4","EPOCH":"1966-02-23T11:52:00.014304","MEAN_MOTION":"15.10110871","ECCENTRICITY":"0.04968760","INCLINATION":"51.8511","RA_OF_ASC_NODE":"102.6597","ARG_OF_PERICENTER":"70.4691","MEAN_ANOMALY":"294.8386","EPHEMERIS_TYPE":"0","CLASSIFICATION_TYPE":"U","NORAD_CAT_ID":"2070","ELEMENT_SET_NO":"999","REV_AT_EPOCH":"10","BSTAR":"0.00000000000000","MEAN_MOTION_DOT":"0.00059210","MEAN_MOTION_DDOT":"0.0000042240000","SEMIMAJOR_AXIS":"6914.002","PERIOD":"95.357","APOAPSIS":"879.408","PERIAPSIS":"192.327","OBJECT_TYPE":"PAYLOAD","RCS_SIZE":null,"COUNTRY_CODE":null,"LAUNCH_DATE":null,"SITE":null,"DECAY_DATE":"1966-03-16","FILE":"33914","GP_ID":"8719157","TLE_LINE0":"0 COSMOS 110","TLE_LINE1":"1 02070U 66015  A 66054.49444461  .00059210 +42240-5 +00000-0 0  9998","TLE_LINE2":"2 02070 051.8511 102.6597 0496876 070.4691 294.8386 15.10110871000105"},{"CCSDS_OMM_VERS":"2.0","COMMENT":"GENERATED VIA SPACE-TRACK.ORG API","CREATION_DATE":"2004-08-15T23:35:47","ORIGINATOR":"18 SPCS","OBJECT_NAME":"TITAN 3C TRANSTAGE DEB","OBJECT_ID":"1965-082EM","CENTER_NAME":"EARTH","REF_FRAME":"TEME","TIME_SYSTEM":"UTC","MEAN_ELEMENT_THEORY":"SGP4","EPOCH":"1966-03-17T03:34:48.190367","MEAN_MOTION":"15.25422576","ECCENTRICITY":"0.01155060","INCLINATION":"32.5228","RA_OF_ASC_NODE":"230.3710","ARG_OF_PERICENTER":"174.9502","MEAN_ANOMALY":"185.2283","EPHEMERIS_TYPE":"0","CLASSIFICATION_TYPE":"U","NORAD_CAT_ID":"1854","ELEMENT_SET_NO":"999","REV_AT_EPOCH":"1705","BSTAR":"0.00000000000000","MEAN_MOTION_DOT":"0.02502570","MEAN_MOTION_DDOT":"0.0009267300000","SEMIMAJOR_AXIS":"6867.658","PERIOD":"94.400","APOAPSIS":"568.848","PERIAPSIS":"410.197","OBJECT_TYPE":"DEBRIS","RCS_SIZE":null,"COUNTRY_CODE":null,"LAUNCH_DATE":null,"SITE":null,"DECAY_DATE":"1966-04-27","FILE":"33914","GP_ID":"8716920","TLE_LINE0":"0 TITAN 3C TRANSTAGE DEB","TLE_LINE1":"1 01854U 65082 EM 66076.14916887  .02502570 +92673-3 +00000-0 0  9999","TLE_LINE2":"2 01854 032.5228 230.3710 0115506 174.9502 185.2283 15.25422576017055"},{"CCSDS_OMM_VERS":"2.0","COMMENT":"GENERATED VIA SPACE-TRACK.ORG API","CREATION_DATE":"2004-08-15T23:35:47","ORIGINATOR":"18 SPCS","OBJECT_NAME":"OPS 8411 DEB","OBJECT_ID":"1965-055D","CENTER_NAME":"EARTH","REF_FRAME":"TEME","TIME_SYSTEM":"UTC","MEAN_ELEMENT_THEORY":"SGP4","EPOCH":"1966-04-14T13:12:34.660224","MEAN_MOTION":"15.87684870","ECCENTRICITY":"0.00022640","INCLINATION":"70.0500","RA_OF_ASC_NODE":"102.4348","ARG_OF_PERICENTER":"189.0971","MEAN_ANOMALY":"170.9585","EPHEMERIS_TYPE":"0","CLASSIFICATION_TYPE":"U","NORAD_CAT_ID":"1744","ELEMENT_SET_NO":"999","REV_AT_EPOCH":"4158","BSTAR":"0.00000000000000","MEAN_MOTION_DOT":"0.02555171","MEAN_MOTION_DDOT":"0.0132140000000","SEMIMAJOR_AXIS":"6686.916","PERIOD":"90.698","APOAPSIS":"310.295","PERIAPSIS":"307.267","OBJECT_TYPE":"DEBRIS","RCS_SIZE":null,"COUNTRY_CODE":null,"LAUNCH_DATE":null,"SITE":null,"DECAY_DATE":"1966-04-16","FILE":"33914","GP_ID":"8715809","TLE_LINE0":"0 OPS 8411 DEB","TLE_LINE1":"1 01744U 65055  D 66104.55040116  .02555171 +13214-1 +00000-0 0  9994","TLE_LINE2":"2 01744 070.0500 102.4348 0002264 189.0971 170.9585 15.87684870041588"},{"CCSDS_OMM_VERS":"2.0","COMMENT":"GENERATED VIA SPACE-TRACK.ORG API","CREATION_DATE":"2004-08-15T23:35:47","ORIGINATOR":"18 SPCS","OBJECT_NAME":"SL-7 R\/B","OBJECT_ID":"1965-107B","CENTER_NAME":"EARTH","REF_FRAME":"TEME","TIME_SYSTEM":"UTC","MEAN_ELEMENT_THEORY":"SGP4","EPOCH":"1966-04-15T02:01:54.133247","MEAN_MOTION":"16.24357105","ECCENTRICITY":"0.00380440","INCLINATION":"48.7140","RA_OF_ASC_NODE":"223.7539","ARG_OF_PERICENTER":"301.7484","MEAN_ANOMALY":"57.9081","EPHEMERIS_TYPE":"0","CLASSIFICATION_TYPE":"U","NORAD_CAT_ID":"1847","ELEMENT_SET_NO":"999","REV_AT_EPOCH":"1812","BSTAR":"0.00000000000000","MEAN_MOTION_DOT":"0.02138900","MEAN_MOTION_DDOT":"0.0517550000000","SEMIMAJOR_AXIS":"6585.889","PERIOD":"88.650","APOAPSIS":"232.809","PERIAPSIS":"182.699","OBJECT_TYPE":"ROCKET BODY","RCS_SIZE":null,"COUNTRY_CODE":null,"LAUNCH_DATE":null,"SITE":null,"DECAY_DATE":"1966-04-16","FILE":"33914","GP_ID":"8716733","TLE_LINE0":"0 SL-7 R\/B","TLE_LINE1":"1 01847U 65107  B 66105.08465432  .02138900 +51755-1 +00000-0 0  9996","TLE_LINE2":"2 01847 048.7140 223.7539 0038044 301.7484 057.9081 16.24357105018129"},{"CCSDS_OMM_VERS":"2.0","COMMENT":"GENERATED VIA SPACE-TRACK.ORG API","CREATION_DATE":"2004-08-15T23:35:47","ORIGINATOR":"18 SPCS","OBJECT_NAME":"SL-8 DEB","OBJECT_ID":"1965-020CG","CENTER_NAME":"EARTH","REF_FRAME":"TEME","TIME_SYSTEM":"UTC","MEAN_ELEMENT_THEORY":"SGP4","EPOCH":"1966-04-22T22:35:35.067839","MEAN_MOTION":"15.83558730","ECCENTRICITY":"0.01664250","INCLINATION":"55.9755","RA_OF_ASC_NODE":"289.9439","ARG_OF_PERICENTER":"144.0189","MEAN_ANOMALY":"217.1751","EPHEMERIS_TYPE":"0","CLASSIFICATION_TYPE":"U","NORAD_CAT_ID":"1536","ELEMENT_SET_NO":"999","REV_AT_EPOCH":"5788","BSTAR":"0.00000000000000","MEAN_MOTION_DOT":"0.03219328","MEAN_MOTION_DDOT":"0.0201230000000","SEMIMAJOR_AXIS":"6698.527","PERIOD":"90.934","APOAPSIS":"431.872","PERIAPSIS":"208.912","OBJECT_TYPE":"DEBRIS","RCS_SIZE":null,"COUNTRY_CODE":null,"LAUNCH_DATE":null,"SITE":null,"DECAY_DATE":"1966-04-26","FILE":"33914","GP_ID":"8712875","TLE_LINE0":"0 SL-8 DEB","TLE_LINE1":"1 01536U 65020 CG 66112.94137810  .03219328 +20123-1 +00000-0 0  9994","TLE_LINE2":"2 01536 055.9755 289.9439 0166425 144.0189 217.1751 15.83558730057885"},{"CCSDS_OMM_VERS":"2.0","COMMENT":"GENERATED VIA SPACE-TRACK.ORG API","CREATION_DATE":"2004-08-15T23:35:47","ORIGINATOR":"18 SPCS","OBJECT_NAME":"COSMOS 115","OBJECT_ID":"1966-033A","CENTER_NAME":"EARTH","REF_FRAME":"TEME","TIME_SYSTEM":"UTC","MEAN_ELEMENT_THEORY":"SGP4","EPOCH":"1966-04-26T06:20:23.030015","MEAN_MOTION":"16.15148759","ECCENTRICITY":"0.00752980","INCLINATION":"65.0283","RA_OF_ASC_NODE":"22.6740","ARG_OF_PERICENTER":"355.8072","MEAN_ANOMALY":"4.2352","EPHEMERIS_TYPE":"0","CLASSIFICATION_TYPE":"U","NORAD_CAT_ID":"2147","ELEMENT_SET_NO":"999","REV_AT_EPOCH":"94","BSTAR":"0.00000000000000","MEAN_MOTION_DOT":"0.00237969","MEAN_MOTION_DDOT":"0.0001652600000","SEMIMAJOR_AXIS":"6610.897","PERIOD":"89.155","APOAPSIS":"282.541","PERIAPSIS":"182.983","OBJECT_TYPE":"PAYLOAD","RCS_SIZE":null,"COUNTRY_CODE":null,"LAUNCH_DATE":null,"SITE":null,"DECAY_DATE":"1966-04-28","FILE":"33914","GP_ID":"8719294","TLE_LINE0":"0 COSMOS 115","TLE_LINE1":"1 02147U 66033  A 66116.26415544  .00237969 +16526-3 +00000-0 0  9992","TLE_LINE2":"2 02147 065.0283 022.6740 0075298 355.8072 004.2352 16.15148759000948"},{"CCSDS_OMM_VERS":"2.0","COMMENT":"GENERATED VIA SPACE-TRACK.ORG API","CREATION_DATE":"2004-08-15T23:35:47","ORIGINATOR":"18 SPCS","OBJECT_NAME":"SL-6 DEB","OBJECT_ID":"1966-035D","CENTER_NAME":"EARTH","REF_FRAME":"TEME","TIME_SYSTEM":"UTC","MEAN_ELEMENT_THEORY":"SGP4","EPOCH":"1966-04-26T07:15:17.557055","MEAN_MOTION":"15.90980281","ECCENTRICITY":"0.01837730","INCLINATION":"65.0464","RA_OF_ASC_NODE":"352.9066","ARG_OF_PERICENTER":"75.4037","MEAN_ANOMALY":"286.6353","EPHEMERIS_TYPE":"0","CLASSIFICATION_TYPE":"U","NORAD_CAT_ID":"2157","ELEMENT_SET_NO":"999","REV_AT_EPOCH":"16","BSTAR":"0.00000000000000","MEAN_MOTION_DOT":"0.05827797","MEAN_MOTION_DDOT":"0.0712160000000","SEMIMAJOR_AXIS":"6677.679","PERIOD":"90.510","APOAPSIS":"422.262","PERIAPSIS":"176.827","OBJECT_TYPE":"DEBRIS","RCS_SIZE":null,"COUNTRY_CODE":null,"LAUNCH_DATE":null,"SITE":null,"DECAY_DATE":"1966-04-29","FILE":"33914","GP_ID":"8719428","TLE_LINE0":"0 SL-6 DEB","TLE_LINE1":"1 02157U 66035  D 66116.30228654  .05827797 +71216-1 +00000-0 0  9998","TLE_LINE2":"2 02157 065.0464 352.9066 0183773 075.4037 286.6353 15.90980281000161"}]